CCSDS_OMM_VERS = 2.0
CREATION_DATE  = 
ORIGINATOR     = 

OBJECT_NAME    = ORBVIEW 2 (SEASTAR)
OBJECT_ID      = 1997-037A
CENTER_NAME    = EARTH
REF_FRAME      = TEME
TIME_SYSTEM    = UTC
MEAN_ELEMENT_THEORY = SGP/SGP4

EPOCH          = 2025-11-28T09:59:37.546656
MEAN_MOTION    = 14.35400033
ECCENTRICITY   = .00023628
INCLINATION    = 98.8451
RA_OF_ASC_NODE = 129.1309
ARG_OF_PERICENTER = 24.2019
MEAN_ANOMALY   = 335.9277

EPHEMERIS_TYPE = 0
CLASSIFICATION_TYPE = U
NORAD_CAT_ID   = 24883
ELEMENT_SET_NO = 999
REV_AT_EPOCH   = 49394
BSTAR          = .13036103E-3
MEAN_MOTION_DOT = .328E-5
MEAN_MOTION_DDOT = 0

CCSDS_OMM_VERS = 2.0
CREATION_DATE  = 
ORIGINATOR     = 

OBJECT_NAME    = SL-16 R/B
OBJECT_ID      = 1998-043G
CENTER_NAME    = EARTH
REF_FRAME      = TEME
TIME_SYSTEM    = UTC
MEAN_ELEMENT_THEORY = SGP/SGP4

EPOCH          = 2025-11-28T15:00:09.557568
MEAN_MOTION    = 14.26020140
ECCENTRICITY   = .00090324
INCLINATION    = 98.8104
RA_OF_ASC_NODE = 280.3658
ARG_OF_PERICENTER = 312.2546
MEAN_ANOMALY   = 47.7867

EPHEMERIS_TYPE = 0
CLASSIFICATION_TYPE = U
NORAD_CAT_ID   = 25400
ELEMENT_SET_NO = 999
REV_AT_EPOCH   = 42458
BSTAR          = .58139111E-4
MEAN_MOTION_DOT = .94E-6
MEAN_MOTION_DDOT = 0

CCSDS_OMM_VERS = 2.0
CREATION_DATE  = 
ORIGINATOR     = 

OBJECT_NAME    = SL-16 R/B
OBJECT_ID      = 1998-045B
CENTER_NAME    = EARTH
REF_FRAME      = TEME
TIME_SYSTEM    = UTC
MEAN_ELEMENT_THEORY = SGP/SGP4

EPOCH          = 2025-11-28T15:18:37.489824
MEAN_MOTION    = 14.16172638
ECCENTRICITY   = .00077801
INCLINATION    = 71.0127
RA_OF_ASC_NODE = 34.0827
ARG_OF_PERICENTER = 197.1154
MEAN_ANOMALY   = 162.9708

EPHEMERIS_TYPE = 0
CLASSIFICATION_TYPE = U
NORAD_CAT_ID   = 25407
ELEMENT_SET_NO = 999
REV_AT_EPOCH   = 41279
BSTAR          = .16993654E-3
MEAN_MOTION_DOT = .289E-5
MEAN_MOTION_DDOT = 0

CCSDS_OMM_VERS = 2.0
CREATION_DATE  = 
ORIGINATOR     = 

OBJECT_NAME    = ISS (ZARYA)
OBJECT_ID      = 1998-067A
CENTER_NAME    = EARTH
REF_FRAME      = TEME
TIME_SYSTEM    = UTC
MEAN_ELEMENT_THEORY = SGP/SGP4

EPOCH          = 2025-11-28T13:03:55.135296
MEAN_MOTION    = 15.49168962
ECCENTRICITY   = .00037452
INCLINATION    = 51.6312
RA_OF_ASC_NODE = 212.7497
ARG_OF_PERICENTER = 179.2752
MEAN_ANOMALY   = 180.8242

EPHEMERIS_TYPE = 0
CLASSIFICATION_TYPE = U
NORAD_CAT_ID   = 25544
ELEMENT_SET_NO = 999
REV_AT_EPOCH   = 54065
BSTAR          = .17015416E-3
MEAN_MOTION_DOT = .8991E-4
MEAN_MOTION_DDOT = 0

CCSDS_OMM_VERS = 2.0
CREATION_DATE  = 
ORIGINATOR     = 

OBJECT_NAME    = CZ-4B R/B
OBJECT_ID      = 1999-025C
CENTER_NAME    = EARTH
REF_FRAME      = TEME
TIME_SYSTEM    = UTC
MEAN_ELEMENT_THEORY = SGP/SGP4

EPOCH          = 2025-11-28T15:34:23.969856
MEAN_MOTION    = 14.18238235
ECCENTRICITY   = .0036034
INCLINATION    = 98.6790
RA_OF_ASC_NODE = 14.2428
ARG_OF_PERICENTER = 275.6123
MEAN_ANOMALY   = 194.6144

EPHEMERIS_TYPE = 0
CLASSIFICATION_TYPE = U
NORAD_CAT_ID   = 25732
ELEMENT_SET_NO = 999
REV_AT_EPOCH   = 37384
BSTAR          = .58801246E-4
MEAN_MOTION_DOT = .78E-6
MEAN_MOTION_DDOT = 0

CCSDS_OMM_VERS = 2.0
CREATION_DATE  = 
ORIGINATOR     = 

OBJECT_NAME    = OKEAN-O
OBJECT_ID      = 1999-039A
CENTER_NAME    = EARTH
REF_FRAME      = TEME
TIME_SYSTEM    = UTC
MEAN_ELEMENT_THEORY = SGP/SGP4

EPOCH          = 2025-11-28T14:14:05.149824
MEAN_MOTION    = 14.80123340
ECCENTRICITY   = .00009726
INCLINATION    = 97.9623
RA_OF_ASC_NODE = 28.4161
ARG_OF_PERICENTER = 72.9808
MEAN_ANOMALY   = 287.1511

EPHEMERIS_TYPE = 0
CLASSIFICATION_TYPE = U
NORAD_CAT_ID   = 25860
ELEMENT_SET_NO = 999
REV_AT_EPOCH   = 41943
BSTAR          = .11264783E-3
MEAN_MOTION_DOT = .802E-5
MEAN_MOTION_DDOT = 0

CCSDS_OMM_VERS = 2.0
CREATION_DATE  = 
ORIGINATOR     = 

OBJECT_NAME    = SL-16 R/B
OBJECT_ID      = 1999-039B
CENTER_NAME    = EARTH
REF_FRAME      = TEME
TIME_SYSTEM    = UTC
MEAN_ELEMENT_THEORY = SGP/SGP4

EPOCH          = 2025-11-28T14:26:36.608640
MEAN_MOTION    = 14.81554193
ECCENTRICITY   = .00139271
INCLINATION    = 98.0147
RA_OF_ASC_NODE = 26.7509
ARG_OF_PERICENTER = 221.5643
MEAN_ANOMALY   = 138.4512

EPHEMERIS_TYPE = 0
CLASSIFICATION_TYPE = U
NORAD_CAT_ID   = 25861
ELEMENT_SET_NO = 999
REV_AT_EPOCH   = 42189
BSTAR          = .9393517E-4
MEAN_MOTION_DOT = .684E-5
MEAN_MOTION_DDOT = 0

CCSDS_OMM_VERS = 2.0
CREATION_DATE  = 
ORIGINATOR     = 

OBJECT_NAME    = DELTA 2 R/B
OBJECT_ID      = 1999-041E
CENTER_NAME    = EARTH
REF_FRAME      = TEME
TIME_SYSTEM    = UTC
MEAN_ELEMENT_THEORY = SGP/SGP4

EPOCH          = 2025-11-28T11:31:25.147488
MEAN_MOTION    = 14.11343567
ECCENTRICITY   = .05048928
INCLINATION    = 51.7621
RA_OF_ASC_NODE = 345.3667
ARG_OF_PERICENTER = 49.7451
MEAN_ANOMALY   = 314.6517

EPHEMERIS_TYPE = 0
CLASSIFICATION_TYPE = U
NORAD_CAT_ID   = 25876
ELEMENT_SET_NO = 999
REV_AT_EPOCH   = 34873
BSTAR          = .19323387E-3
MEAN_MOTION_DOT = .952E-5
MEAN_MOTION_DDOT = 0

CCSDS_OMM_VERS = 2.0
CREATION_DATE  = 
ORIGINATOR     = 

OBJECT_NAME    = HELIOS 1B
OBJECT_ID      = 1999-064A
CENTER_NAME    = EARTH
REF_FRAME      = TEME
TIME_SYSTEM    = UTC
MEAN_ELEMENT_THEORY = SGP/SGP4

EPOCH          = 2025-11-28T14:34:43.941792
MEAN_MOTION    = 14.87191008
ECCENTRICITY   = .00022937
INCLINATION    = 98.1749
RA_OF_ASC_NODE = 226.8546
ARG_OF_PERICENTER = 61.2835
MEAN_ANOMALY   = 298.8610

EPHEMERIS_TYPE = 0
CLASSIFICATION_TYPE = U
NORAD_CAT_ID   = 25977
ELEMENT_SET_NO = 999
REV_AT_EPOCH   = 67023
BSTAR          = .24391522E-3
MEAN_MOTION_DOT = .2136E-4
MEAN_MOTION_DDOT = 0

CCSDS_OMM_VERS = 2.0
CREATION_DATE  = 
ORIGINATOR     = 

OBJECT_NAME    = TERRA
OBJECT_ID      = 1999-068A
CENTER_NAME    = EARTH
REF_FRAME      = TEME
TIME_SYSTEM    = UTC
MEAN_ELEMENT_THEORY = SGP/SGP4

EPOCH          = 2025-11-28T15:15:01.209888
MEAN_MOTION    = 14.60927071
ECCENTRICITY   = .00032566
INCLINATION    = 97.9769
RA_OF_ASC_NODE = 24.8358
ARG_OF_PERICENTER = 126.4457
MEAN_ANOMALY   = 349.2125

EPHEMERIS_TYPE = 0
CLASSIFICATION_TYPE = U
NORAD_CAT_ID   = 25994
ELEMENT_SET_NO = 999
REV_AT_EPOCH   = 38032
BSTAR          = .11700329E-3
MEAN_MOTION_DOT = .528E-5
MEAN_MOTION_DDOT = 0

CCSDS_OMM_VERS = 2.0
CREATION_DATE  = 
ORIGINATOR     = 

OBJECT_NAME    = SL-16 R/B
OBJECT_ID      = 2000-006B
CENTER_NAME    = EARTH
REF_FRAME      = TEME
TIME_SYSTEM    = UTC
MEAN_ELEMENT_THEORY = SGP/SGP4

EPOCH          = 2025-11-28T08:16:08.103072
MEAN_MOTION    = 14.15803700
ECCENTRICITY   = .00176243
INCLINATION    = 71.0022
RA_OF_ASC_NODE = 310.9255
ARG_OF_PERICENTER = 328.8595
MEAN_ANOMALY   = 31.1482

EPHEMERIS_TYPE = 0
CLASSIFICATION_TYPE = U
NORAD_CAT_ID   = 26070
ELEMENT_SET_NO = 999
REV_AT_EPOCH   = 33421
BSTAR          = .18607505E-3
MEAN_MOTION_DOT = .318E-5
MEAN_MOTION_DDOT = 0

CCSDS_OMM_VERS = 2.0
CREATION_DATE  = 
ORIGINATOR     = 

OBJECT_NAME    = TITAN 4B R/B
OBJECT_ID      = 2000-047B
CENTER_NAME    = EARTH
REF_FRAME      = TEME
TIME_SYSTEM    = UTC
MEAN_ELEMENT_THEORY = SGP/SGP4

EPOCH          = 2025-11-28T13:20:09.543264
MEAN_MOTION    = 15.08622153
ECCENTRICITY   = .0040019
INCLINATION    = 67.9901
RA_OF_ASC_NODE = 324.6873
ARG_OF_PERICENTER = 161.3012
MEAN_ANOMALY   = 198.9619

EPHEMERIS_TYPE = 0
CLASSIFICATION_TYPE = U
NORAD_CAT_ID   = 26474
ELEMENT_SET_NO = 999
REV_AT_EPOCH   = 37765
BSTAR          = .24640965E-3
MEAN_MOTION_DOT = .3802E-4
MEAN_MOTION_DDOT = 0

