ORBVIEW 2 (SEASTAR)     
1 24883U 97037A   25332.41640679  .00000328  00000+0  13036-3 0  9991
2 24883  98.8451 129.1309 0002362  24.2019 335.9277 14.35400033493946
SL-16 R/B               
1 25400U 98043G   25332.62511062  .00000094  00000+0  58139-4 0  9995
2 25400  98.8104 280.3658 0009032 312.2546  47.7867 14.26020140424584
SL-16 R/B               
1 25407U 98045B   25332.63793391  .00000289  00000+0  16994-3 0  9990
2 25407  71.0127  34.0827 0007780 197.1154 162.9708 14.16172638412797
ISS (ZARYA)             
1 25544U 98067A   25332.54438814  .00008991  00000+0  17015-3 0  9995
2 25544  51.6312 212.7497 0003745 179.2752 180.8242 15.49168962540650
CZ-4B R/B               
1 25732U 99025C   25332.64888854  .00000078  00000+0  58801-4 0  9990
2 25732  98.6790  14.2428 0036034 275.6123 194.6144 14.18238235373844
OKEAN-O                 
1 25860U 99039A   25332.59311516  .00000802  00000+0  11265-3 0  9994
2 25860  97.9623  28.4161 0000972  72.9808 287.1511 14.80123340419435
SL-16 R/B               
1 25861U 99039B   25332.60181260  .00000684  00000+0  93935-4 0  9991
2 25861  98.0147  26.7509 0013927 221.5643 138.4512 14.81554193421896
DELTA 2 R/B             
1 25876U 99041E   25332.48015217  .00000952  00000+0  19323-3 0  9990
2 25876  51.7621 345.3667 0504892  49.7451 314.6517 14.11343567348731
HELIOS 1B               
1 25977U 99064A   25332.60745303  .00002136  00000+0  24392-3 0  9995
2 25977  98.1749 226.8546 0002293  61.2835 298.8610 14.87191008670235
TERRA                   
1 25994U 99068A   25332.63543067  .00000528  00000+0  11700-3 0  9996
2 25994  97.9769  24.8358 0003256 126.4457 349.2125 14.60927071380322
SL-16 R/B               
1 26070U 00006B   25332.34453823  .00000318  00000+0  18608-3 0  9995
2 26070  71.0022 310.9255 0017624 328.8595  31.1482 14.15803700334215
TITAN 4B R/B            
1 26474U 00047B   25332.55566601  .00003802  00000+0  24641-3 0  9995
2 26474  67.9901 324.6873 0040019 161.3012 198.9619 15.08622153377652
